[{"OBJECT_NAME":"STARLINK-3043","OBJECT_ID":"2021-082BB","EPOCH":"2026-03-09T21:55:52.298400","MEAN_MOTION":14.98316627,"ECCENTRICITY":0.00018785,"INCLINATION":69.9994,"RA_OF_ASC_NODE":253.8771,"ARG_OF_PERICENTER":271.8402,"MEAN_ANOMALY":88.2542,"EPHEMERIS_TYPE":0,"CLASSIFICATION_TYPE":"U","NORAD_CAT_ID":49179,"ELEMENT_SET_NO":999,"REV_AT_EPOCH":24699,"BSTAR":0.00024395893,"MEAN_MOTION_DOT":2.818e-5,"MEAN_MOTION_DDOT":0},{"OBJECT_NAME":"CZ-6A DEB","OBJECT_ID":"2022-151CD","EPOCH":"2026-03-09T04:34:52.178880","MEAN_MOTION":15.04926808,"ECCENTRICITY":0.00436133,"INCLINATION":98.6267,"RA_OF_ASC_NODE":153.8749,"ARG_OF_PERICENTER":159.2339,"MEAN_ANOMALY":201.0669,"EPHEMERIS_TYPE":0,"CLASSIFICATION_TYPE":"U","NORAD_CAT_ID":54334,"ELEMENT_SET_NO":999,"REV_AT_EPOCH":17669,"BSTAR":0.0057373504,"MEAN_MOTION_DOT":0.00083812,"MEAN_MOTION_DDOT":0}]
